NORAD_CAT_ID,OBJECT_NAME,OBJECT_TYPE,EPOCH,MEAN_MOTION,ECCENTRICITY,INCLINATION,RA_OF_ASC_NODE,ARG_OF_PERICENTER,MEAN_ANOMALY,BSTAR,MEAN_MOTION_DOT,MEAN_MOTION_DDOT,TLE_LINE0,TLE_LINE1,TLE_LINE2,SEMIMAJOR_AXIS,PERIOD,APOGEE,PERIGEE,DECAYED
52364.0,STARLINK-3820,PAYLOAD,2022-05-17 14:00:01,15.73221441,0.0001330999999999,53.2137,348.6594,112.6633,60.3562,-0.00015354,-0.00022131,0.0,0 STARLINK-3820,1 52364U 22045AK  22137.58335648 -.00022131  00000-0 -15354-3 0  9992,2 52364  53.2137 348.6594 0001331 112.6633  60.3562 15.73221441  1308,6727.834,91.532,350.595,348.80400000000014,0.0
52364.0,STARLINK-3820,PAYLOAD,2022-05-17 20:00:01,15.73219634,9.990000000000004e-05,53.2136,347.4239,106.3633,43.3127,-0.00050572,-0.00071054,0.0,0 STARLINK-3820,1 52364U 22045AK  22137.83334491 -.00071054  00000-0 -50572-3 0  9994,2 52364  53.2136 347.4239 0000999 106.3633  43.3127 15.73219634  5379,6727.839,91.532,350.376,349.032,0.0
52364.0,STARLINK-3820,PAYLOAD,2022-05-17 22:00:01,15.731939,9.47e-05,53.2138,347.0119,102.7865,159.1931,-0.00020112,-0.0002874,0.0,0 STARLINK-3820,1 52364U 22045AK  22137.91668981 -.00028740  00000-0 -20112-3 0  9998,2 52364  53.2138 347.0119 0000947 102.7865 159.1931 15.73193900  1309,6727.913000000001,91.534,350.415,349.14,0.0
52364.0,STARLINK-3820,PAYLOAD,2022-05-18 06:00:00,15.73209053,7.38e-05,53.2139,345.3611,109.0964,241.7384,0.00022736,0.0003142,0.0,0 STARLINK-3820,1 52364U 22045AK  22138.25001157  .00031420  00000-0  22736-3 0  9993,2 52364  53.2139 345.3611 0000738 109.0964 241.7384 15.73209053  5431,6727.869000000002,91.533,350.231,349.23800000000006,0.0
52364.0,STARLINK-3820,PAYLOAD,2022-05-18 14:00:01,15.73247351,0.0001,53.2143,343.7103,110.6663,329.1159,-0.00031731,-0.00045003,0.0,0 STARLINK-3820,1 52364U 22045AK  22138.58334491 -.00045003  00000-0 -31731-3 0  9998,2 52364  53.2143 343.7103 0001000 110.6663 329.1159 15.73247351  1307,6727.76,91.53,350.298,348.952,0.0
52364.0,STARLINK-3820,PAYLOAD,2022-05-18 20:00:01,15.73230502,0.0001007,53.214,342.4747,97.9048,318.5953,-0.00078642,-0.001097,0.0,0 STARLINK-3820,1 52364U 22045AK  22138.83334491 -.00109700  00000-0 -78642-3 0  9993,2 52364  53.2140 342.4747 0001007  97.9048 318.5953 15.73230502  5538,6727.808000000001,91.531,350.351,348.996,0.0
52364.0,STARLINK-3820,PAYLOAD,2022-05-18 22:00:00,15.73191325,9.96e-05,53.2141,342.0626,93.8546,74.889,-0.00040647,-0.00057255,0.0,0 STARLINK-3820,1 52364U 22045AK  22138.91667824 -.00057255  00000-0 -40647-3 0  9992,2 52364  53.2141 342.0626 0000996  93.8546  74.8890 15.73191325  1307,6727.92,91.534,350.455,349.115,0.0
52364.0,STARLINK-3820,PAYLOAD,2022-05-19 06:00:00,15.73158337,8.41e-05,53.2136,340.4117,104.7368,152.9057,0.00024786,0.00034245,0.0,0 STARLINK-3820,1 52364U 22045AK  22139.25001157  .00034245  00000-0  24786-3 0  9999,2 52364  53.2136 340.4117 0000841 104.7368 152.9057 15.73158337  5595,6728.014,91.536,350.445,349.31300000000016,0.0
52364.0,STARLINK-3820,PAYLOAD,2022-05-19 14:00:01,15.73213818,9.77e-05,53.2139,338.7615,111.5729,235.025,-0.00029105,-0.00041289,0.0,0 STARLINK-3820,1 52364U 22045AK  22139.58335648 -.00041289  00000-0 -29105-3 0  9998,2 52364  53.2139 338.7615 0000977 111.5729 235.0250 15.73213818  1307,6727.856,91.532,350.37800000000016,349.06300000000016,0.0
52364.0,STARLINK-3820,PAYLOAD,2022-05-19 22:00:00,15.73169641,9.98e-05,53.214,337.1140000000001,94.8489,340.6251,0.00075013,0.00105853,0.0,0 STARLINK-3820,1 52364U 22045AK  22139.91667824  .00105853  00000-0  75013-3 0  9994,2 52364  53.2140 337.1140 0000998  94.8489 340.6251 15.73169641  1302,6727.982,91.535,350.51800000000014,349.175,0.0
52364.0,STARLINK-3820,PAYLOAD,2022-05-20 14:00:01,15.73246365,0.000111,53.2145,333.8126,103.2845,150.0825,-0.00053859,-0.00075678,0.0,0 STARLINK-3820,1 52364U 22045AK  22140.58334491 -.00075678  00000-0 -53859-3 0  9997,2 52364  53.2145 333.8126 0001110 103.2845 150.0825 15.73246365  5800,6727.763000000001,91.53,350.375,348.881,0.0
52364.0,STARLINK-3820,PAYLOAD,2022-05-20 22:00:00,15.72768275,0.0001205,53.2171,332.1645,89.2939,253.0496,0.0046497,0.00696173,0.0,0 STARLINK-3820,1 52364U 22045AK  22140.91667824  .00696173  00000-0  46497-2 0  9999,2 52364  53.2171 332.1645 0001205  89.2939 253.0496 15.72768275  5850,6729.126,91.558,351.802,350.18,0.0
52364.0,STARLINK-3820,PAYLOAD,2022-05-21 06:00:00,15.73221107,0.0001107,53.2139,330.5137,94.2767,337.0052,-4.2874e-05,-6.637e-05,0.0,0 STARLINK-3820,1 52364U 22045AK  22141.25001157 -.00006637  00000-0 -42874-4 0  9997,2 52364  53.2139 330.5137 0001107  94.2767 337.0052 15.73221107  1304,6727.835,91.532,350.445,348.955,0.0
52364.0,STARLINK-3820,PAYLOAD,2022-05-21 14:00:01,15.73220103,0.0001114,53.2141,328.8640000000001,98.458,61.8281,5.4691e-06,1.48e-06,0.0,0 STARLINK-3820,1 52364U 22045AK  22141.58335648  .00000148  00000-0  54691-5 0  9998,2 52364  53.2141 328.8640 0001114  98.4580  61.8281 15.73220103  5960,6727.8380000000025,91.532,350.452,348.95300000000015,0.0
52364.0,STARLINK-3820,PAYLOAD,2022-05-21 22:00:00,15.73238344,0.0001112,53.2141,327.2165,81.7202,167.4586,-0.00016908,-0.00024319,0.0,0 STARLINK-3820,1 52364U 22045AK  22141.91667824 -.00024319  00000-0 -16908-3 0  9994,2 52364  53.2141 327.2165 0001112  81.7202 167.4586 15.73238344  1300,6727.786,91.531,350.399,348.903,0.0
52364.0,STARLINK-3820,PAYLOAD,2022-05-22 14:00:01,15.73202031,0.0001074,53.2144,323.9153,90.801,336.2297,-0.00054559,-0.00076501,0.0,0 STARLINK-3820,1 52364U 22045AK  22142.58334491 -.00076501  00000-0 -54559-3 0  9993,2 52364  53.2144 323.9153 0001074  90.8010 336.2297 15.73202031  6122,6727.889,91.533,350.477,349.032,0.0
52364.0,STARLINK-3820,PAYLOAD,2022-05-22 22:00:01,15.7311229,8.28e-05,53.2142,322.2676,68.1844,87.8506,0.0009134,0.0012907,0.0,0 STARLINK-3820,1 52364U 22045AK  22142.91668981  .00129070  00000-0  91340-3 0  9991,2 52364  53.2142 322.2676 0000828  68.1844  87.8506 15.73112290  6175,6728.145,91.538,350.56699999999995,349.45300000000015,0.0
52364.0,STARLINK-3820,PAYLOAD,2022-05-23 14:00:01,15.731938,9.82e-05,53.2139,318.9669,83.3126,250.4732,0.00016219,0.00022196,0.0,0 STARLINK-3820,1 52364U 22045AK  22143.58334491  .00022196  00000-0  16219-3 0  9994,2 52364  53.2139 318.9669 0000982  83.3126 250.4732 15.73193800  1303,6727.913000000001,91.534,350.439,349.117,0.0
52364.0,STARLINK-3820,PAYLOAD,2022-05-23 16:00:00,15.73218769,0.0001077,53.2138,318.5552,78.5342,7.4768,-0.00022263,-0.00031771,0.0,0 STARLINK-3820,1 52364U 22045AK  22143.66667824 -.00031771  00000-0 -22263-3 0  9999,2 52364  53.2138 318.5552 0001077  78.5342   7.4768 15.73218769  6295,6727.842,91.532,350.431,348.982,0.0
52364.0,STARLINK-3820,PAYLOAD,2022-05-23 22:00:01,15.73197271,0.0001159,53.2137,317.3191,70.0464,352.7699,0.00024092,0.00033322,0.0,0 STARLINK-3820,1 52364U 22045AK  22143.91668981  .00033322  00000-0  24092-3 0  9996,2 52364  53.2137 317.3191 0001159  70.0464 352.7699 15.73197271  6331,6727.903,91.533,350.548,348.98800000000006,0.0
52364.0,STARLINK-3820,PAYLOAD,2022-05-24 04:00:00,15.73232196,0.0001207,53.2137,316.0804,75.5837,323.8615,-0.00048324,-0.00067986,0.0,0 STARLINK-3820,1 52364U 22045AK  22144.16667824 -.00067986  00000-0 -48324-3 0  9998,2 52364  53.2137 316.0804 0001207  75.5837 323.8615 15.73232196  6373,6727.803000000001,91.531,350.48,348.856,0.0
52364.0,STARLINK-3820,PAYLOAD,2022-05-24 14:00:01,15.73161646,0.0001261,53.214,314.0181,77.5145,163.075,3.1767e-05,3.833e-05,0.0,0 STARLINK-3820,1 52364U 22045AK  22144.58334491  .00003833  00000-0  31767-4 0  9998,2 52364  53.2140 314.0181 0001261  77.5145 163.0750 15.73161646  1300,6728.005,91.535,350.718,349.021,0.0
52364.0,STARLINK-3820,PAYLOAD,2022-05-24 22:00:00,15.73150037,0.0001363,53.2136,312.3702,64.4962,265.0035,0.00030545,0.00042373,0.0,0 STARLINK-3820,1 52364U 22045AK  22144.91667824  .00042373  00000-0  30545-3 0  9998,2 52364  53.2136 312.3702 0001363  64.4962 265.0035 15.73150037  6485,6728.038000000001,91.536,350.82,348.986,0.0
52364.0,STARLINK-3820,PAYLOAD,2022-05-25 14:00:01,15.73235666,0.0001264999999999,53.2134,309.0696,72.6468,74.6216,-6.9158e-05,-0.00010329,0.0,0 STARLINK-3820,1 52364U 22045AK  22145.58334491 -.00010329  00000-0 -69158-4 0  9994,2 52364  53.2134 309.0696 0001265  72.6468  74.6216 15.73235666  1304,6727.793000000002,91.531,350.51,348.807,0.0
52364.0,STARLINK-3820,PAYLOAD,2022-05-25 22:00:00,15.73216417,0.0001215,53.2132,307.4213,56.7112,179.5656,0.00035349,0.00049316,0.0,0 STARLINK-3820,1 52364U 22045AK  22145.91667824  .00049316  00000-0  35349-3 0  9990,2 52364  53.2132 307.4213 0001215  56.7112 179.5656 15.73216417  1309,6727.848000000001,91.532,350.531,348.896,0.0
52364.0,STARLINK-3820,PAYLOAD,2022-05-26 06:00:00,15.73201778,0.0001278,53.2135,305.7694,67.4449,257.8039,-9.0945e-06,-1.896e-05,0.0,0 STARLINK-3820,1 52364U 22045AK  22146.25001157 -.00001896  00000-0 -90945-5 0  9997,2 52364  53.2135 305.7694 0001278  67.4449 257.8039 15.73201778  6693,6727.89,91.533,350.615,348.895,0.0
52364.0,STARLINK-3820,PAYLOAD,2022-05-26 10:43:19,15.73229922,0.0001717,53.2146,304.7955,92.9095,267.2122,6.8202e-05,8.974e-05,0.0,0 STARLINK-3820,1 52364U 22045AK  22146.44674957  .00008974  00000-0  68202-4 0  9994,2 52364  53.2146 304.7955 0001717  92.9095 267.2122 15.73229922  6736,6727.81,91.531,350.83,348.52,0.0
52364.0,STARLINK-3820,PAYLOAD,2022-05-26 14:00:01,15.73194525,0.000152,53.2137,304.1203,67.8498,346.3332,-6.4955e-05,-9.724e-05,0.0,0 STARLINK-3820,1 52364U 22045AK  22146.58334491 -.00009724  00000-0 -64955-4 0  9992,2 52364  53.2137 304.1203 0001520  67.8498 346.3332 15.73194525  1306,6727.911,91.533,350.798,348.75300000000016,0.0
52364.0,STARLINK-3820,PAYLOAD,2022-05-26 20:00:01,15.73178502,0.000157,53.2137,302.8844,59.7454,331.1177,-9.8062e-06,-1.995e-05,0.0,0 STARLINK-3820,1 52364U 22045AK  22146.83334491 -.00001995  00000-0 -98062-5 0  9999,2 52364  53.2137 302.8844 0001570  59.7454 331.1177 15.73178502  6793,6727.956,91.534,350.87800000000016,348.765,0.0
